start=new Date('2023-03-21T00:00:00.000Z').valueOf();
sats=[{"CENTER_NAME":"EARTH","TIME_SYSTEM":"UTC","GP_ID":"228549201","REV_AT_EPOCH":"3653","BSTAR":"0.00004263200000","MEAN_MOTION_DDOT":"0.0000000000000","ELEMENT_SET_NO":"999","CLASSIFICATION_TYPE":"U","MEAN_MOTION_DOT":"0.00000489","SITE":"AFWTR","RCS_SIZE":"LARGE","NORAD_CAT_ID":"53194","EPHEMERIS_TYPE":"0","MEAN_MOTION":"15.01260097","TLE_LINE1":"1 53194U 22084F   23079.74339624  .00000489  00000-0  42632-4 0  9999","LAUNCH_DATE":"2022-07-22","ARG_OF_PERICENTER":"236.4352","OBJECT_TYPE":"PAYLOAD","DECAY_DATE":null,"COUNTRY_CODE":"US","SEMIMAJOR_AXIS":"6941.147","OBJECT_ID":"2022-084F","MEAN_ELEMENT_THEORY":"SGP4","EPOCH":"2023-03-20T17:50:29.435136","MEAN_ANOMALY":"123.6766","TLE_LINE2":"2 53194  97.6558 142.0696 0001110 236.4352 123.6766 15.01260097 36539","PERIOD":"95.919","INCLINATION":"97.6558","REF_FRAME":"TEME","RA_OF_ASC_NODE":"142.0696","APOAPSIS":"563.782","ECCENTRICITY":"0.00011100","OBJECT_NAME":"STARLINK-4382","FILE":"3866115","PERIAPSIS":"562.241"},{"INCLINATION":"97.6549","ECCENTRICITY":"0.00019720","APOAPSIS":"564.373","RA_OF_ASC_NODE":"142.0661","REF_FRAME":"TEME","PERIOD":"95.919","TLE_LINE2":"2 53195  97.6549 142.0661 0001972 247.1492 112.9524 15.01262468 37204","FILE":"3866115","PERIAPSIS":"561.635","OBJECT_NAME":"STARLINK-4404","COUNTRY_CODE":"US","DECAY_DATE":null,"MEAN_ELEMENT_THEORY":"SGP4","MEAN_ANOMALY":"112.9524","EPOCH":"2023-03-20T17:42:50.328000","SEMIMAJOR_AXIS":"6941.139","OBJECT_ID":"2022-084G","NORAD_CAT_ID":"53195","RCS_SIZE":"LARGE","SITE":"AFWTR","MEAN_MOTION_DOT":"0.00000742","OBJECT_TYPE":"PAYLOAD","ARG_OF_PERICENTER":"247.1492","LAUNCH_DATE":"2022-07-22","EPHEMERIS_TYPE":"0","TLE_LINE1":"1 53195U 22084G   23079.73808250  .00000742  00000-0  62391-4 0  9991","MEAN_MOTION":"15.01262468","CENTER_NAME":"EARTH","CLASSIFICATION_TYPE":"U","MEAN_MOTION_DDOT":"0.0000000000000","BSTAR":"0.00006239100000","ELEMENT_SET_NO":"999","TIME_SYSTEM":"UTC","REV_AT_EPOCH":"3720","GP_ID":"228548946"},{"SITE":"AFWTR","MEAN_MOTION_DOT":"0.00000936","NORAD_CAT_ID":"53196","RCS_SIZE":"LARGE","EPHEMERIS_TYPE":"0","TLE_LINE1":"1 53196U 22084H   23079.73993340  .00000936  00000-0  77472-4 0  9998","MEAN_MOTION":"15.01261028","OBJECT_TYPE":"PAYLOAD","LAUNCH_DATE":"2022-07-22","ARG_OF_PERICENTER":"245.7652","CENTER_NAME":"EARTH","TIME_SYSTEM":"UTC","REV_AT_EPOCH":"3719","GP_ID":"228547699","ELEMENT_SET_NO":"999","MEAN_MOTION_DDOT":"0.0000000000000","CLASSIFICATION_TYPE":"U","BSTAR":"0.00007747200000","TLE_LINE2":"2 53196  97.6557 142.0658 0002660 245.7652 114.3295 15.01261028 37197","PERIOD":"95.919","INCLINATION":"97.6557","APOAPSIS":"564.855","ECCENTRICITY":"0.00026600","RA_OF_ASC_NODE":"142.0658","REF_FRAME":"TEME","OBJECT_NAME":"STARLINK-4407","FILE":"3866115","PERIAPSIS":"561.162","DECAY_DATE":null,"COUNTRY_CODE":"US","SEMIMAJOR_AXIS":"6941.144","OBJECT_ID":"2022-084H","MEAN_ELEMENT_THEORY":"SGP4","MEAN_ANOMALY":"114.3295","EPOCH":"2023-03-20T17:45:30.245760"},{"COUNTRY_CODE":"US","DECAY_DATE":null,"MEAN_ELEMENT_THEORY":"SGP4","EPOCH":"2023-03-20T17:37:09.309792","MEAN_ANOMALY":"114.2486","SEMIMAJOR_AXIS":"6941.129","OBJECT_ID":"2022-084J","INCLINATION":"97.6556","REF_FRAME":"TEME","APOAPSIS":"564.603","ECCENTRICITY":"0.00023180","RA_OF_ASC_NODE":"142.0594","TLE_LINE2":"2 53197  97.6556 142.0594 0002318 245.8496 114.2486 15.01265865 36534","PERIOD":"95.919","FILE":"3866115","PERIAPSIS":"561.385","OBJECT_NAME":"STARLINK-4403","CENTER_NAME":"EARTH","MEAN_MOTION_DDOT":"0.0000000000000","CLASSIFICATION_TYPE":"U","ELEMENT_SET_NO":"999","BSTAR":"0.00005242300000","TIME_SYSTEM":"UTC","GP_ID":"228548450","REV_AT_EPOCH":"3653","RCS_SIZE":"LARGE","NORAD_CAT_ID":"53197","MEAN_MOTION_DOT":"0.00000614","SITE":"AFWTR","LAUNCH_DATE":"2022-07-22","ARG_OF_PERICENTER":"245.8496","OBJECT_TYPE":"PAYLOAD","EPHEMERIS_TYPE":"0","MEAN_MOTION":"15.01265865","TLE_LINE1":"1 53197U 22084J   23079.73413553  .00000614  00000-0  52423-4 0  9994"},{"RCS_SIZE":"LARGE","NORAD_CAT_ID":"53198","MEAN_MOTION_DOT":"0.00001320","SITE":"AFWTR","LAUNCH_DATE":"2022-07-22","ARG_OF_PERICENTER":"244.9277","OBJECT_TYPE":"PAYLOAD","EPHEMERIS_TYPE":"0","MEAN_MOTION":"15.01264147","TLE_LINE1":"1 53198U 22084K   23079.73783606  .00001320  00000-0  10736-3 0  9999","CENTER_NAME":"EARTH","MEAN_MOTION_DDOT":"0.0000000000000","CLASSIFICATION_TYPE":"U","ELEMENT_SET_NO":"999","BSTAR":"0.00010736000000","TIME_SYSTEM":"UTC","REV_AT_EPOCH":"3719","GP_ID":"228548701","INCLINATION":"97.6553","REF_FRAME":"TEME","ECCENTRICITY":"0.00024630","APOAPSIS":"564.709","RA_OF_ASC_NODE":"142.0644","TLE_LINE2":"2 53198  97.6553 142.0644 0002463 244.9277 115.1691 15.01264147 37199","PERIOD":"95.919","FILE":"3866115","PERIAPSIS":"561.289","OBJECT_NAME":"STARLINK-4385","COUNTRY_CODE":"US","DECAY_DATE":null,"MEAN_ELEMENT_THEORY":"SGP4","MEAN_ANOMALY":"115.1691","EPOCH":"2023-03-20T17:42:29.035584","SEMIMAJOR_AXIS":"6941.134","OBJECT_ID":"2022-084K"},{"MEAN_MOTION_DOT":"0.00000124","SITE":"AFWTR","RCS_SIZE":"LARGE","NORAD_CAT_ID":"53199","MEAN_MOTION":"15.01251482","TLE_LINE1":"1 53199U 22084L   23079.73229140  .00000124  00000-0  14277-4 0  9994","EPHEMERIS_TYPE":"0","ARG_OF_PERICENTER":"246.6834","LAUNCH_DATE":"2022-07-22","OBJECT_TYPE":"PAYLOAD","CENTER_NAME":"EARTH","REV_AT_EPOCH":"3653","GP_ID":"228549447","TIME_SYSTEM":"UTC","MEAN_MOTION_DDOT":"0.0000000000000","CLASSIFICATION_TYPE":"U","BSTAR":"0.00001427700000","ELEMENT_SET_NO":"999","PERIOD":"95.920","TLE_LINE2":"2 53199  97.6559 142.0596 0001593 246.6834 113.4222 15.01251482 36539","REF_FRAME":"TEME","APOAPSIS":"564.144","RA_OF_ASC_NODE":"142.0596","ECCENTRICITY":"0.00015930","INCLINATION":"97.6559","OBJECT_NAME":"STARLINK-4395","PERIAPSIS":"561.932","FILE":"3866115","DECAY_DATE":null,"COUNTRY_CODE":"US","OBJECT_ID":"2022-084L","SEMIMAJOR_AXIS":"6941.173","EPOCH":"2023-03-20T17:34:29.976960","MEAN_ANOMALY":"113.4222","MEAN_ELEMENT_THEORY":"SGP4"},{"MEAN_MOTION_DOT":"0.00000653","SITE":"AFWTR","RCS_SIZE":"LARGE","NORAD_CAT_ID":"53200","EPHEMERIS_TYPE":"0","MEAN_MOTION":"15.01261884","TLE_LINE1":"1 53200U 22084M   23079.73598580  .00000653  00000-0  55464-4 0  9994","LAUNCH_DATE":"2022-07-22","ARG_OF_PERICENTER":"237.2588","OBJECT_TYPE":"PAYLOAD","CENTER_NAME":"EARTH","TIME_SYSTEM":"UTC","REV_AT_EPOCH":"3719","GP_ID":"228548200","MEAN_MOTION_DDOT":"0.0000000000000","BSTAR":"0.00005546400000","CLASSIFICATION_TYPE":"U","ELEMENT_SET_NO":"999","PERIOD":"95.919","TLE_LINE2":"2 53200  97.6560 142.0623 0002426 237.2588 122.8403 15.01261884 37198","INCLINATION":"97.6560","REF_FRAME":"TEME","ECCENTRICITY":"0.00024260","APOAPSIS":"564.690","RA_OF_ASC_NODE":"142.0623","OBJECT_NAME":"STARLINK-4417","FILE":"3866115","PERIAPSIS":"561.322","DECAY_DATE":null,"COUNTRY_CODE":"US","SEMIMAJOR_AXIS":"6941.141","OBJECT_ID":"2022-084M","MEAN_ELEMENT_THEORY":"SGP4","MEAN_ANOMALY":"122.8403","EPOCH":"2023-03-20T17:39:49.173120"},{"NORAD_CAT_ID":"53201","RCS_SIZE":"LARGE","MEAN_MOTION_DOT":"0.00000925","SITE":"AFWTR","ARG_OF_PERICENTER":"240.0276","LAUNCH_DATE":"2022-07-22","OBJECT_TYPE":"PAYLOAD","MEAN_MOTION":"15.01259111","TLE_LINE1":"1 53201U 22084N   23079.72858713  .00000925  00000-0  76615-4 0  9994","EPHEMERIS_TYPE":"0","CENTER_NAME":"EARTH","MEAN_MOTION_DDOT":"0.0000000000000","CLASSIFICATION_TYPE":"U","ELEMENT_SET_NO":"999","BSTAR":"0.00007661500000","REV_AT_EPOCH":"3653","GP_ID":"228547950","TIME_SYSTEM":"UTC","REF_FRAME":"TEME","RA_OF_ASC_NODE":"142.0577","APOAPSIS":"563.726","ECCENTRICITY":"0.00010250","INCLINATION":"97.6580","PERIOD":"95.919","TLE_LINE2":"2 53201  97.6580 142.0577 0001025 240.0276 120.0847 15.01259111 36538","PERIAPSIS":"562.303","FILE":"3866115","OBJECT_NAME":"STARLINK-4405","COUNTRY_CODE":"US","DECAY_DATE":null,"MEAN_ANOMALY":"120.0847","EPOCH":"2023-03-20T17:29:09.928032","MEAN_ELEMENT_THEORY":"SGP4","OBJECT_ID":"2022-084N","SEMIMAJOR_AXIS":"6941.150"},{"REF_FRAME":"TEME","ECCENTRICITY":"0.00018050","APOAPSIS":"566.743","RA_OF_ASC_NODE":"142.2357","INCLINATION":"97.6559","PERIOD":"95.971","TLE_LINE2":"2 53202  97.6559 142.2357 0001805 102.1827 257.9599 15.00456582 36544","PERIAPSIS":"564.236","FILE":"3866115","OBJECT_NAME":"STARLINK-4411","COUNTRY_CODE":"US","DECAY_DATE":null,"EPOCH":"2023-03-20T17:13:29.664480","MEAN_ANOMALY":"257.9599","MEAN_ELEMENT_THEORY":"SGP4","OBJECT_ID":"2022-084P","SEMIMAJOR_AXIS":"6943.624","RCS_SIZE":"MEDIUM","NORAD_CAT_ID":"53202","MEAN_MOTION_DOT":"0.00001300","SITE":"AFWTR","LAUNCH_DATE":"2022-07-22","ARG_OF_PERICENTER":"102.1827","OBJECT_TYPE":"PAYLOAD","MEAN_MOTION":"15.00456582","TLE_LINE1":"1 53202U 22084P   23079.71770445  .00001300  00000-0  10796-3 0  9994","EPHEMERIS_TYPE":"0","CENTER_NAME":"EARTH","MEAN_MOTION_DDOT":"0.0000000000000","CLASSIFICATION_TYPE":"U","BSTAR":"0.00010796000000","ELEMENT_SET_NO":"999","REV_AT_EPOCH":"3654","GP_ID":"228549202","TIME_SYSTEM":"UTC"},{"OBJECT_TYPE":"PAYLOAD","LAUNCH_DATE":"2022-07-22","ARG_OF_PERICENTER":"118.0535","TLE_LINE1":"1 53203U 22084Q   23079.72488349  .00003002  00000-0  23816-3 0  9993","MEAN_MOTION":"15.01266953","EPHEMERIS_TYPE":"0","RCS_SIZE":"LARGE","NORAD_CAT_ID":"53203","SITE":"AFWTR","MEAN_MOTION_DOT":"0.00003002","ELEMENT_SET_NO":"999","MEAN_MOTION_DDOT":"0.0000000000000","CLASSIFICATION_TYPE":"U","BSTAR":"0.00023816000000","GP_ID":"228548947","REV_AT_EPOCH":"3653","TIME_SYSTEM":"UTC","CENTER_NAME":"EARTH","PERIAPSIS":"562.636","FILE":"3866115","OBJECT_NAME":"STARLINK-4409","ECCENTRICITY":"0.00005100","APOAPSIS":"563.344","RA_OF_ASC_NODE":"142.0582","REF_FRAME":"TEME","INCLINATION":"97.6591","TLE_LINE2":"2 53203  97.6591 142.0582 0000510 118.0535 242.0741 15.01266953 36538","PERIOD":"95.919","MEAN_ANOMALY":"242.0741","EPOCH":"2023-03-20T17:23:49.933536","MEAN_ELEMENT_THEORY":"SGP4","OBJECT_ID":"2022-084Q","SEMIMAJOR_AXIS":"6941.125","COUNTRY_CODE":"US","DECAY_DATE":null}];
